KUIPER-00053            
1 64513U 25134P   25199.23833891  .00021090  00000+0  59656-3 0  9992
2 64513  51.8775 211.3367 0001974 186.0502 174.0461 15.36265650  4590
KUIPER-00054            
1 64514U 25134Q   25199.24169535  .00021792  00000+0  61900-3 0  9995
2 64514  51.8775 211.3617 0002526 185.4368 174.6591 15.36113228  4993
KUIPER-00055            
1 64515U 25134R   25199.23129029  .00020641  00000+0  57585-3 0  9995
2 64515  51.8773 211.2899 0000777  98.3064 261.8010 15.36711016  4909
KUIPER-00056            
1 64516U 25134S   25198.46407724  .00033233  00000+0  94607-3 0  9998
2 64516  51.8732 215.1490 0002971 180.8605 179.2377 15.35808241  4477
KUIPER-00057            
1 64517U 25134T   25199.19284650  .00018210  00000+0  53838-3 0  9990
2 64517  51.8690 211.7728 0006735 192.3993 167.6828 15.34961616  4698
KUIPER-00058            
1 64518U 25134U   25198.27442606  .00015253  00000+0  44489-3 0  9992
2 64518  51.8708 216.1239 0004594 191.5170 168.5712 15.35535959  4447
KUIPER-00059            
1 64519U 25134V   25199.23273548  .00029539  00000+0  81839-3 0  9999
2 64519  51.8777 211.2993 0001387  80.2811 279.8332 15.36717466  4585
KUIPER-00060            
1 64520U 25134W   25199.23643046  .00021519  00000+0  60495-3 0  9990
2 64520  51.8756 211.3242 0002545 141.3102 218.8067 15.36444965  4591
